PE2_FLT2  (TYVAK-0262)  
1 59104U 24043G   26068.92472008  .00004105  00000+0  36572-3 0  9991
2 59104  97.8241 199.4452 0006851  28.1235 332.0355 14.96566721109803
STARLINK-34370          
1 64309U 25123U   26068.72965821  .00007563  00000+0  64090-3 0  9999
2 64309  70.0016 194.3836 0003733 273.6723  86.4009 14.98334393 41625
